[{"OBJECT_NAME":"STARLINK-30865","OBJECT_ID":"2023-170W","EPOCH":"2026-03-09T00:00:04.000320","MEAN_MOTION":15.26709308,"ECCENTRICITY":0.0001357,"INCLINATION":42.999,"RA_OF_ASC_NODE":186.7067,"ARG_OF_PERICENTER":243.4599,"MEAN_ANOMALY":281.8761,"EPHEMERIS_TYPE":0,"CLASSIFICATION_TYPE":"U","NORAD_CAT_ID":58226,"ELEMENT_SET_NO":999,"REV_AT_EPOCH":574,"BSTAR":0.0002482558,"MEAN_MOTION_DOT":6.399e-5,"MEAN_MOTION_DDOT":0},{"OBJECT_NAME":"TIANMU-1 13","OBJECT_ID":"2023-205C","EPOCH":"2026-03-10T00:00:50.036832","MEAN_MOTION":15.25862583,"ECCENTRICITY":0.00064025,"INCLINATION":97.3565,"RA_OF_ASC_NODE":92.1641,"ARG_OF_PERICENTER":331.9635,"MEAN_ANOMALY":28.1258,"EPHEMERIS_TYPE":0,"CLASSIFICATION_TYPE":"U","NORAD_CAT_ID":58647,"ELEMENT_SET_NO":999,"REV_AT_EPOCH":12237,"BSTAR":0.00032666188,"MEAN_MOTION_DOT":8.299e-5,"MEAN_MOTION_DDOT":0}]
